0 ATLAS 2 CENTAUR R/B
1 21804U 91083B   13282.79866918 -.00000145  00000-0  98574-2 0  6629
2 21804 016.7696 144.8543 7339081 022.4267 123.9268 01.91146723152570
0 ATLAS 2 CENTAUR R/B
1 21804U 91083B   13286.50292605 -.00000187  00000-0  75548-2 0  6631
2 21804 016.7686 143.8201 7338936 024.3525 152.9013 01.91147519152658
0 ATLAS 2 CENTAUR R/B
1 21804U 91083B   13289.37048243 -.00000028  00000-0  42639-2 0  6646
2 21804 016.7665 143.0204 7338689 025.8419 326.1188 01.91147339152707
0 ATLAS 2 CENTAUR R/B
1 21804U 91083B   13290.46232685  .00000122  00000-0  11852-1 0  6661
2 21804 016.7819 142.7512 7339803 026.3735 357.4376 01.91147362152737
0 ATLAS 2 CENTAUR R/B
1 21804U 91083B   13292.38192179 -.00000095  00000-0  13743-2 0  6658
2 21804 016.7642 142.1805 7338504 027.4030 238.3578 01.91148655152767
0 ATLAS 2 CENTAUR R/B
1 21804U 91083B   13294.65613528 -.00000287  00000-0 -47361-2 0  6664
2 21804 016.7631 141.5471 7338399 028.5810 003.3031 01.91150294152808
